#dP2019  9 27  0  0  0.00000000      96 __u+U IGS08 FIT  IAC
## 2072 432000.00000000   900.00000000 58753 0.0000000000000
+  115   C01C02C03C04C05C06C07C08C09C10C11C12C13C16C19C20C21
+        C22C23C24C25C26C27C28C29C30C32C33C34C35C36C37E01E02
+        E03E04E05E07E08E09E11E12E13E14E15E18E19E21E24E25E26
+        E27E30E31E33E36G01G02G03G04G05G06G07G08G09G10G11G12
+        G13G14G15G16G17G18G19G20G21G22G23G24G25G26G27G28G29
+        G30G31G32J01J02J03J07R01R02R03R05R07R08R09R11R12R13
+        R14R15R16R17R18R19R20R21R22R23R24R26R27  0  0  0  0
++        13 12  0 13 12  8  8  8  8  8  7  8  7  9  7  7  7
++         7  7  8  8  8  7  7  8  7  8  8  8  9  8  8  4  4
++         4  4  4  4  4  4  4  4  4  4  4  5  4  4  4  4  4
++         4  4  4  4  4  3  3  3  3  4  3  3  3  3  3  3  3
++         3  3  3  3  3  3  3  3  3  3  3  3  3  3  3  3  3
++         3  3  3  8  8  8 13  6  5  5  5  5  5  5  5  5  6
++         5  5  6  5  5  6  6  5  5  5  6  8  8  0  0  0  0
%c M  cc GPS ccc cccc cccc cccc cccc ccccc ccccc ccccc ccccc
%c cc cc ccc ccc cccc cccc cccc cccc ccccc ccccc ccccc ccccc
%f  1.2500000  1.025000000  0.00000000000  0.000000000000000
%f  0.0000000  0.000000000  0.00000000000  0.000000000000000
%i    0    0    0    0      0      0      0      0         0
%i    0    0    0    0      0      0      0      0         0
/* INFORMATION & ANALYSIS CENTER (IAC)            FINAL DATA
/* S/V CLOCKS ARE ALIGNED TO GNSS TIME                      
/* G:C1WC2W R:C1PC2P E:C1XC5X C:C2IC6I J:C1CC2S             
/* PCV:IGS14_2070 OL/AL:FES2004  NONE     YN ORB:CoN CLK:CoN
*  2019 09 27  1 30  0.00000000
PC01 -32330.226899  27037.707013    295.256352    -59.657624
PC02   4357.435379  41957.290938    454.459951    845.565355
PC03 -14766.296789  39486.591724    740.071510 999999.999999
PC04 -39584.505225  14448.959004    279.271926 999999.999999
PC05  21866.742310  36058.371071    385.407005    148.515409
PC06 -24364.620849  26857.964060 -21476.644459    391.529865
PC07 -13024.413547  37357.912767 -13647.530666   -156.538924
PC08  -8834.387345  20416.219055  35910.280222     -8.585783
PC09  -9343.909209  26936.898450 -30949.708102     -3.046321
PC10  -3234.521504  41782.958901  -1252.310299   -214.137010
PC11 -16014.190653 -12210.644129 -19233.396264     90.103320
PC12  15196.048285 -13281.164971 -19248.943174   -250.684291
PC13   5291.424713  28551.624365  30725.539573   -874.436061
PC16 -19844.914039  27571.978656 -25038.724069   -882.450186
PC19  13302.451403   8912.108285 -22835.796729    203.514594
PC20     16.062220  23316.588444 -15298.893008   -105.682207
PC21  13713.928423 -24268.837674  -1536.765160    289.512733
PC22  19105.442990 -10901.030118 -17192.031534   -150.488442
PC23 -17727.866770    341.609562 -21535.717540   -932.042966
PC24  -9270.349375 -25193.094182   7598.712673   -893.505041
PC25 -19699.038209 -16946.104374 -10153.780979   -360.559390
PC26   5054.281485 -18458.909431  20302.253629    401.723379
PC27 -15310.606958  13524.349760  19002.465174    196.463581
PC28 -27313.547459   3660.743991   4345.322954    190.933263
PC29  23673.098799   7416.547675  12780.426533    124.019880
PC30   5993.030462  15302.998704  22551.611855    199.050336
PC32 -13543.551905  24343.924987   1555.907575   -918.823520
PC33 -13325.479463  -8966.807453  22822.374270   -419.125015
PC34  -6314.984376 -15309.109938 -22466.673446   -108.196791
PC35  27191.846340  -4529.829179  -4252.408089   -382.052685
PC36  19282.048705  17494.956441  10061.315101   -894.608117
PC37  -5856.591604  17970.179530 -20503.261784   -530.071789
PE01 -14343.776844  10263.795778 -23761.129341   -698.391107
PE02  14326.198120 -10343.850475  23754.121104     81.630310
PE03  24996.950084 -14744.753215  -5874.474732   -215.315583
PE04 -14416.142633  22752.117837 -12269.178119   -373.574089
PE05  21016.262000   1995.713795 -20751.711863   -445.125999
PE07  -4765.056330 -17480.323329  23414.371648   -273.052718
PE08  14175.962497 -22821.936294  12444.316448   6286.158943
PE09   4883.740520  17282.873481 -23523.669697   6303.651831
PE11  15631.442658  18164.008211  17363.024572   5576.328044
PE12  -6135.795728  15171.350371  24663.687603   6178.571931
PE13 -15596.058173 -18061.402888 -17508.168296    393.412570
PE14  21759.959008   3218.263296  11522.607080   -734.920148
PE15   5664.289080 -15264.730982 -24715.911608    893.861777
PE18 -20327.619782 -12151.838909 -21059.689998   -829.277453
PE19 -25241.123722  13346.196737   7806.984237     -3.743546
PE21 -16320.978166 -12208.613411 -21462.100647   -557.057503
PE24   8634.793671  27527.865082   6644.444630   5850.277604
PE25  16317.370685  12270.447200  21442.366419   1665.881676
PE26 -27707.784461 -10392.544727    131.957615   4061.116919
PE27  -8685.274047 -27540.357884  -6500.879884    379.008453
PE30   4147.509747 -26672.619389  12143.835709   4514.353047
PE31  -4001.816774  26659.968788 -12196.699558   -468.914946
PE33 -23641.493332   3521.855103  17459.521790   -470.511468
PE36  27763.599035  10274.216058     14.440197    657.042257
PG01 -22185.144344 -13925.756649   5122.371340   -142.318426
PG02  10588.113500  20129.102435  14437.958477   -313.627497
PG03 -13841.069270  -7363.249756  21394.917172    -15.389102
PG04   2195.868895 -17089.874197 -20363.750420     19.956661
PG05   4181.007311  24047.030246 -10364.821840     -1.775196
PG06  -4023.178170  15338.317944  21343.101633    -70.752269
PG07 -20163.226015  -1044.984427 -17216.703832   -114.804426
PG08 -15710.011267  -8352.134042 -19752.430224     -7.890749
PG09 -25308.487311   7173.709189   3644.827308    -41.472919
PG10  11419.297859 -20946.183535 -11382.054396    -70.173379
PG11 -24457.771792  -9214.604345  -4235.241263   -495.427605
PG12  11068.866343  12579.220433  20434.398467    199.969985
PG13   5609.314910  14136.667358 -21893.324952    -42.134855
PG14   9169.207987 -16450.651367  18983.047233    -59.221650
PG15  17503.387144   7250.528220 -19039.964109   -284.082647
PG16   -249.349245 -24631.019564  -9526.014087    -77.825816
PG17 -17898.271280  14825.260257  13192.146457    133.196218
PG18 -19489.210254 -17801.675214  -3911.519280     88.732128
PG19 -12688.876871  15317.177182  17317.514887   -261.763672
PG20  14250.153091 -12709.027946 -18494.661445    527.010756
PG21  17233.087802  -4246.419621 -18912.308775   -112.073315
PG22 -12434.897184 -15018.386559  18295.887320   -758.715994
PG23 -22895.259147  -1766.321216  14018.573897   -164.690961
PG24  22456.998186  14313.976798   2354.472759     -2.691869
PG25  15328.731674  -3391.686348  21172.365199    -13.642737
PG26   4395.403041 -26063.109933   1156.034597     48.224066
PG27  -2659.868584 -14797.496333 -21985.600303    -68.664096
PG28 -12486.633774  20884.518694 -10163.938215    760.977001
PG29  25656.556355  -3777.293469   5767.234132     86.992751
PG30 -12596.812296   9619.303673 -21294.693216    -49.175977
PG31   2898.872457 -16516.685843  20480.412747      7.629345
PG32  17262.278114 -15942.543091  12319.834411     71.177148
PJ01 -31483.193471  27010.895644  12501.035320   -343.976737
PJ02 -19065.576452  23869.224651 -24619.854770     -4.705534
PJ03 -30919.385978  26387.318266  16234.388664     -2.671000
PJ07 -25381.031730  33662.321465    -17.797501     -0.052016
PR01   1057.592108  15046.535956 -20568.807630     50.326595
PR02  14719.763746  -2931.449995 -20574.481669    390.039563
PR03  17648.865799 -16861.894556  -7290.182609      2.172539
PR05  -2655.801321 -13120.317029  21714.711420     36.460545
PR07 -17638.107461  17144.988817   6860.351077    -27.194309
PR08 -10540.748270  21009.662005  -9873.837459     15.453377
PR09 -13563.434132  -6998.487320 -20440.528910     92.717630
PR11   2578.384319  22227.397845 -12175.182450    -80.718658
PR12  11238.839613  22513.188187   4274.194562     65.138228
PR13  13782.620490   9439.843778  19264.348419    -28.927510
PR14   8150.354033  -8710.568137  22568.399368     43.406049
PR15  -2064.845504 -21857.744578  13017.896621    104.153057
PR16 -11709.307312 -22147.962871  -4487.399963      3.632356
PR17  20755.554574  -3611.363674 -14410.606301    263.519177
PR18   5194.845974  -9730.464737 -22984.421254      8.863324
PR19 -12623.149637 -10921.384720 -19285.903846    -55.846156
PR20 -24770.248288  -5527.699526  -2732.733481   -391.631599
PR21 -20202.280698   3903.194896  15049.025953    -74.967948
PR22  -2180.278802  10242.256110  23262.325100   -177.305813
PR23  17932.080897   9706.778747  15322.060220    256.484330
PR24  25161.491969   4130.453698    605.004064   -185.128681
PR26 -23894.989345  -6410.225356  -6131.402556     -2.438805
PR27    992.128293 -19097.714430  16844.434919    124.628257
EOF
